ONEWEB-0584             
1 54651U 22166K   23262.77488958  .00000000  00000+0 -32654-4 0  9993
2 54651  87.9173  83.3554 0001347  97.7399 262.3888 13.21826898 39697
ONEWEB-0585             
1 54652U 22166L   23262.79801649 -.00000709  00000+0 -17495-2 0  9993
2 54652  87.9171  83.3521 0002087  91.7202 268.4171 13.21829457 39707
ONEWEB-0586             
1 54653U 22166M   23262.73494799  .00000015  00000+0  55976-5 0  9999
2 54653  87.9146  83.4136 0001576  98.5561 261.5752 13.21825151 39692
ONEWEB-0587             
1 54654U 22166N   23263.42776047  .00000027  00000+0  33720-4 0  9991
2 54654  87.9163  83.2188 0002052  72.3786 287.7572 13.21831101 39935
ONEWEB-0589             
1 54655U 22166P   23263.41411943 -.00000012  00000+0 -61262-4 0  9990
2 54655  87.9174  83.2345 0001051 126.7204 233.4027 13.21826128 39802
ONEWEB-0590             
1 54656U 22166Q   23262.45527731  .00000070  00000+0  13855-3 0  9993
2 54656  87.9170  83.4320 0001771  81.9576 278.1759 13.21830170 39650
ONEWEB-0591             
1 54657U 22166R   23262.46791006  .00000004  00000+0 -21360-4 0  9992
2 54657  87.9174  83.4271 0001516  88.3745 271.7563 13.21826793 39687
ONEWEB-0592             
1 54658U 22166S   23262.77277617 -.00000242  00000+0 -61809-3 0  9990
2 54658  87.9165  83.3515 0001440  89.2059 270.9240 13.21825102 39611
ONEWEB-0593             
1 54659U 22166T   23263.02299804  .00000003  00000+0 -24774-4 0  9997
2 54659  87.9172  83.3092 0001476  94.0174 266.1128 13.21823814 39756
ONEWEB-0594             
1 54660U 22166U   23262.43635778  .00000002  00000+0 -27390-4 0  9993
2 54660  87.9170  83.4243 0001914  91.6430 268.4923 13.21827438 39686
ONEWEB-0595             
1 54661U 22166V   23263.39728451  .00000003  00000+0 -24915-4 0  9992
2 54661  87.9170  83.2254 0001844  79.0695 281.0646 13.21824397 39798
ONEWEB-0596             
1 54662U 22166W   23262.76648330  .00000097  00000+0  20268-3 0  9998
2 54662  87.9170  83.3525 0001282  88.7831 271.3450 13.21828085 39711
ONEWEB-0597             
1 54663U 22166X   23263.42882361  .00000010  00000+0 -64851-5 0  9991
2 54663  87.9169  83.2209 0001569 102.3248 257.8062 13.21827170 39803
ONEWEB-0600             
1 54664U 22166Y   23262.80433531 -.00000011  00000+0 -57463-4 0  9996
2 54664  87.9175  83.3946 0001700  98.6202 261.5125 13.21825267 39698
ONEWEB-0601             
1 54665U 22166Z   23262.79697510  .00000012  00000+0 -25205-5 0  9994
2 54665  87.9171  83.3465 0001249  86.2420 273.8857 13.21827469 39878
ONEWEB-0602             
1 54666U 22166AA  23262.23450662  .00000069  00000+0  13500-3 0  9993
2 54666  87.9172  83.4668 0001487  94.7827 265.3476 13.21824460 39652
ONEWEB-0603             
1 54667U 22166AB  23263.07138682 -.00001443  00000+0 -35262-2 0  9999
2 54667  87.9177  83.2951 0001609  99.6695 260.4621 13.21812756 39680
ONEWEB-0604             
1 54668U 22166AC  23262.07470554  .00000134  00000+0  29396-3 0  9992
2 54668  87.9165  83.4940 0001629 112.5384 247.5922 13.21824059 39522
ONEWEB-0605             
1 54669U 22166AD  23262.74965240  .00000077  00000+0  15392-3 0  9995
2 54669  87.9180  83.3786 0001214  88.5807 271.5466 13.21828313 39683
ONEWEB-0606             
1 54670U 22166AE  23262.77176418  .00000080  00000+0  16316-3 0  9992
2 54670  87.9173  83.3647 0001938  80.3454 279.7898 13.21828197 39739
ONEWEB-0607             
1 54671U 22166AF  23263.49400628  .00000057  00000+0  10667-3 0  9993
2 54671  87.9163  83.2101 0001534  95.6493 264.4816 13.21828961 39805
ONEWEB-0608             
1 54672U 22166AG  23263.50031729  .00000050  00000+0  90433-4 0  9991
2 54672  87.9171  83.2104 0001048 101.8381 258.2871 13.21828237 39813
ONEWEB-0610             
1 54673U 22166AH  23262.80011989  .00000055  00000+0  10193-3 0  9999
2 54673  87.9177  83.3494 0001167 103.5706 256.5558 13.21828449 39633
ONEWEB-0611             
1 54674U 22166AJ  23262.79380490  .00000031  00000+0  44618-4 0  9998
2 54674  87.9174  83.3534 0002210  84.0461 276.0925 13.21827733 39626
ONEWEB-0612             
1 54675U 22166AK  23262.80642517 -.00000014  00000+0 -64515-4 0  9993
2 54675  87.9166  83.3443 0001323  86.7452 273.3833 13.21824087 39616
ONEWEB-0615             
1 54676U 22166AL  23262.78751418  .00000012  00000+0 -20378-5 0  9999
2 54676  87.9180  83.3583 0001620  95.2272 264.9047 13.21827885 39626
ONEWEB-0655             
1 54677U 22166AM  23263.51923963  .00000046  00000+0  78995-4 0  9991
2 54677  87.9171  83.2205 0001631  91.0533 269.0788 13.21824485 39714
ONEWEB-0659             
1 54678U 22166AN  23263.53606167  .00000046  00000+0  80940-4 0  9991
2 54678  87.9147  83.2494 0001875  78.9729 281.1616 13.21828299 39801
ONEWEB-0685             
1 54679U 22166AP  23263.53815906  .00000105  00000+0  22340-3 0  9990
2 54679  87.9170  83.2076 0001397 120.9954 239.1317 13.21828398 39699
ONEWEB-0712             
1 54680U 22166AQ  23262.72571023  .00000057  00000+0  94668-4 0  9990
2 54680  87.9341  68.0472 0001653  90.3717 269.7611 13.28619568 40731
ONEWEB-0714             
1 54681U 22166AR  23262.78540704  .00000038  00000+0  59967-4 0  9991
2 54681  87.9170  83.3504 0001616 100.1926 259.9391 13.21826934 39711
ONEWEB-0532             
1 55140U 23004A   23263.58334491  .00000013  00000+0  00000+0 0  9999
2 55140  87.9268 204.6833 0005216  85.6391 321.2971 13.18368818 35818
ONEWEB-0533             
1 55141U 23004B   23263.58334491  .00000014  00000+0  00000+0 0  9991
2 55141  87.7866 189.5884 0003565  72.0754 214.2249 13.41440712 36771
ONEWEB-0541             
1 55142U 23004C   23262.94161012  .00000405  00000+0  11081-2 0  9996
2 55142  87.8942 219.9484 0001960  77.6990 282.4358 13.11414471 34723
ONEWEB-0543             
1 55143U 23004D   23263.58334491 -.00791886  00000+0 -23062+0 0  9992
2 55143  86.7822 180.3964 0005346  74.4892  60.5017 14.47359984 37357
ONEWEB-0544             
1 55144U 23004E   23263.58334491 -.00797766  00000+0 -23204+0 0  9994
2 55144  86.7813 180.3409 0003383  77.0230  35.5356 14.47449297 37362
ONEWEB-0560             
1 55145U 23004F   23263.25001157 -.00815959  00000+0 -22857+0 0  9997
2 55145  86.7662 180.4865 0003496  64.0770 185.7473 14.49326457 37319
ONEWEB-0565             
1 55146U 23004G   23263.58334491 -.00789211  00000+0 -23321+0 0  9992
2 55146  86.7904 180.3029 0003807  77.8169 161.1424 14.46646637 37361
ONEWEB-0567             
1 55147U 23004H   23263.58334491 -.00826518  00000+0 -24409+0 0  9993
2 55147  86.7798 180.3008 0006518  81.8077 121.8138 14.46329480 37364
ONEWEB-0569             
1 55148U 23004J   23263.52252701  .00002333  00000+0  42018-3 0  9990
2 55148  86.5393 178.9637 0005125  91.7299 268.4501 14.66180247 37364
ONEWEB-0570             
1 55149U 23004K   23263.25001157 -.00834111  00000+0 -24388+0 0  9993
2 55149  86.7790 180.4141 0003838  82.6768  77.2177 14.46849375 37317
ONEWEB-0571             
1 55150U 23004L   23263.58334491 -.00796537  00000+0 -22771+0 0  9994
2 55150  86.7783 180.3687 0004672  73.8661 133.1893 14.48279424 37362
ONEWEB-0572             
1 55151U 23004M   23263.37618972  .00000093  00000+0  20577-3 0  9990
2 55151  87.9237 204.7254 0001470  71.3137 288.8154 13.17648589 35683
ONEWEB-0573             
1 55152U 23004N   23263.58334491 -.00815357  00000+0 -24144+0 0  9994
2 55152  86.7771 180.3549 0004666  79.6316 213.6840 14.46644688 37353
ONEWEB-0588             
1 55153U 23004P   23263.58334491 -.00807090  00000+0 -23374+0 0  9994
2 55153  86.7737 180.4004 0007459  81.3105  35.4736 14.47681744 37351
ONEWEB-0598             
1 55154U 23004Q   23263.45025574 -.00000243  00000+0 -72077-3 0  9993
2 55154  87.8949 219.8887 0002368  58.1184 302.0174 13.11416266 34742
ONEWEB-0599             
1 55155U 23004R   23263.33821494 -.00000572  00000+0 -15076-2 0  9996
2 55155  87.9191 204.7088 0002194  77.6011 282.5366 13.17648042 35685
ONEWEB-0614             
1 55156U 23004S   23263.44599669 -.00000463  00000+0 -13432-2 0  9998
2 55156  87.8968 219.8665 0001701  92.2272 267.9051 13.11413170 34694
ONEWEB-0616             
1 55157U 23004T   23263.25001157  .00039964  00000+0  10243+0 0  9998
2 55157  88.1129 203.8145 0001971  72.5378  35.0432 13.17660573 35887
ONEWEB-0617             
1 55158U 23004U   23263.35700885 -.00000069  00000+0 -23174-3 0  9991
2 55158  87.8951 219.9003 0001245  78.7877 281.3391 13.11410078 34699
ONEWEB-0618             
1 55159U 23004V   23263.53239155  .00001865  00000+0  76373-3 0  9991
2 55159  86.9165 189.1774 0015874  80.9747 279.3241 14.26653132 36751
ONEWEB-0619             
1 55160U 23004W   23263.58334491  .00000013  00000+0  00000+0 0  9991
2 55160  87.9372 204.6606 0002017 112.0682 306.8524 13.22780101 35820
ONEWEB-0620             
1 55161U 23004X   23262.97021055  .00000110  00000+0  27331-3 0  9991
2 55161  87.8956 219.9774 0001381  66.7755 293.3518 13.11425527 34606
ONEWEB-0621             
1 55162U 23004Y   23263.37819475 -.00000387  00000+0 -11268-2 0  9997
2 55162  87.8938 219.8880 0001657 103.4992 256.6320 13.11412441 34662
ONEWEB-0622             
1 55163U 23004Z   23262.92780676 -.00000096  00000+0 -30803-3 0  9992
2 55163  87.8946 219.9870 0000879  75.4766 284.6460 13.11415241 34571
ONEWEB-0623             
1 55164U 23004AA  23263.58334491 -.00010052  00000+0 -26029-1 0  9992
2 55164  87.9219 204.7282 0001548  90.4158  17.9942 13.17446566 35811
ONEWEB-0624             
1 55165U 23004AB  23262.75369518 -.00000036  00000+0 -11226-3 0  9995
2 55165  87.9560 189.6662 0000881  67.2297 292.8932 13.25744026 36689
ONEWEB-0625             
1 55166U 23004AC  23263.58334491 -.00307327  00000+0 -81699+0 0  9990
2 55166  87.9219 204.7263 0003016  73.4696  93.6959 13.17776631 35809
ONEWEB-0626             
1 55167U 23004AD  23263.38346174  .00000110  00000+0  24930-3 0  9997
2 55167  87.9224 204.7508 0002221  57.9968 302.1380 13.17670768 35781
